STARLINK-1276           
1 45368U 20019J   26068.68419679  .00060332  00000+0  39832-2 0  9990
2 45368  53.0577 166.6421 0002517  41.2868 318.8311 15.06875764329733
TIANQI-15               
1 49027U 21065B   26068.81163741  .00006722  00000+0  41179-3 0  9990
2 49027  34.9979 108.2420 0007067 250.7766 109.2180 15.09508085254244
