[{"OBJECT_NAME":"STARLINK-1276","OBJECT_ID":"2020-019J","EPOCH":"2026-03-09T16:25:14.602656","MEAN_MOTION":15.06875764,"ECCENTRICITY":0.00025174,"INCLINATION":53.0577,"RA_OF_ASC_NODE":166.6421,"ARG_OF_PERICENTER":41.2868,"MEAN_ANOMALY":318.8311,"EPHEMERIS_TYPE":0,"CLASSIFICATION_TYPE":"U","NORAD_CAT_ID":45368,"ELEMENT_SET_NO":999,"REV_AT_EPOCH":32973,"BSTAR":0.0039831661,"MEAN_MOTION_DOT":0.00060332,"MEAN_MOTION_DDOT":0},{"OBJECT_NAME":"TIANQI-15","OBJECT_ID":"2021-065B","EPOCH":"2026-03-09T19:28:45.472224","MEAN_MOTION":15.09508085,"ECCENTRICITY":0.00070671,"INCLINATION":34.9979,"RA_OF_ASC_NODE":108.242,"ARG_OF_PERICENTER":250.7766,"MEAN_ANOMALY":109.218,"EPHEMERIS_TYPE":0,"CLASSIFICATION_TYPE":"U","NORAD_CAT_ID":49027,"ELEMENT_SET_NO":999,"REV_AT_EPOCH":25424,"BSTAR":0.00041179088,"MEAN_MOTION_DOT":6.722e-5,"MEAN_MOTION_DDOT":0}]
